start=new Date('2022-08-23T00:00:00.000Z').valueOf();
sats=[{"MEAN_ELEMENT_THEORY":"SGP4","CLASSIFICATION_TYPE":"U","TLE_LINE2":"2 44922  53.0575  39.4184 0001392  82.7995 277.3152 15.06388947144683","ARG_OF_PERICENTER":"82.7995","SEMIMAJOR_AXIS":"6925.382","LAUNCH_DATE":"2020-01-07","TLE_LINE1":"1 44922U 20001J   22234.84185363  .00000376  00000-0  44149-4 0  9997","SITE":"AFETR","NORAD_CAT_ID":"44922","DECAY_DATE":null,"MEAN_ANOMALY":"277.3152","BSTAR":"0.00004414900000","TIME_SYSTEM":"UTC","REF_FRAME":"TEME","OBJECT_ID":"2020-001J","EPHEMERIS_TYPE":"0","ECCENTRICITY":"0.00013920","RCS_SIZE":"LARGE","PERIOD":"95.593","OBJECT_NAME":"STARLINK-1104","INCLINATION":"53.0575","EPOCH":"2022-08-22T20:12:16.153632","COUNTRY_CODE":"US","REV_AT_EPOCH":"14468","OBJECT_TYPE":"PAYLOAD","GP_ID":"210775153","MEAN_MOTION":"15.06388947","PERIAPSIS":"546.283","CENTER_NAME":"EARTH","FILE":"3544179","MEAN_MOTION_DOT":"0.00000376","APOAPSIS":"548.211","ELEMENT_SET_NO":"999","RA_OF_ASC_NODE":"39.4184","MEAN_MOTION_DDOT":"0.0000000000000"},{"PERIAPSIS":"546.292","CENTER_NAME":"EARTH","FILE":"3544179","GP_ID":"210773902","OBJECT_TYPE":"PAYLOAD","MEAN_MOTION":"15.06395182","MEAN_MOTION_DDOT":"0.0000000000000","RA_OF_ASC_NODE":"39.6056","ELEMENT_SET_NO":"999","APOAPSIS":"548.165","MEAN_MOTION_DOT":"0.00000738","OBJECT_NAME":"STARLINK-1106","RCS_SIZE":"LARGE","ECCENTRICITY":"0.00013520","PERIOD":"95.592","REV_AT_EPOCH":"14467","COUNTRY_CODE":"US","INCLINATION":"53.0559","EPOCH":"2022-08-22T19:13:52.408128","NORAD_CAT_ID":"44923","SITE":"AFETR","ARG_OF_PERICENTER":"85.7736","TLE_LINE1":"1 44923U 20001K   22234.80130102  .00000738  00000-0  68413-4 0  9997","LAUNCH_DATE":"2020-01-07","SEMIMAJOR_AXIS":"6925.363","OBJECT_ID":"2020-001K","REF_FRAME":"TEME","EPHEMERIS_TYPE":"0","DECAY_DATE":null,"MEAN_ANOMALY":"274.3407","BSTAR":"0.00006841300000","TIME_SYSTEM":"UTC","MEAN_ELEMENT_THEORY":"SGP4","TLE_LINE2":"2 44923  53.0559  39.6056 0001352  85.7736 274.3407 15.06395182144676","CLASSIFICATION_TYPE":"U"},{"PERIOD":"95.593","RCS_SIZE":"LARGE","ECCENTRICITY":"0.00013960","OBJECT_NAME":"STARLINK-1111","EPOCH":"2022-08-22T17:22:25.945824","INCLINATION":"53.0552","REV_AT_EPOCH":"14466","COUNTRY_CODE":"US","MEAN_MOTION":"15.06393032","GP_ID":"210774152","OBJECT_TYPE":"PAYLOAD","FILE":"3544179","CENTER_NAME":"EARTH","PERIAPSIS":"546.268","ELEMENT_SET_NO":"999","APOAPSIS":"548.202","MEAN_MOTION_DOT":"0.00002511","MEAN_MOTION_DDOT":"0.0000000000000","RA_OF_ASC_NODE":"39.9608","MEAN_ELEMENT_THEORY":"SGP4","CLASSIFICATION_TYPE":"U","TLE_LINE2":"2 44924  53.0552  39.9608 0001396  87.1944 272.9205 15.06393032144662","TLE_LINE1":"1 44924U 20001L   22234.72391141  .00002511  00000-0  18747-3 0  9996","LAUNCH_DATE":"2020-01-07","SEMIMAJOR_AXIS":"6925.370","ARG_OF_PERICENTER":"87.1944","SITE":"AFETR","NORAD_CAT_ID":"44924","TIME_SYSTEM":"UTC","MEAN_ANOMALY":"272.9205","DECAY_DATE":null,"BSTAR":"0.00018747000000","EPHEMERIS_TYPE":"0","OBJECT_ID":"2020-001L","REF_FRAME":"TEME"},{"ELEMENT_SET_NO":"999","APOAPSIS":"548.293","MEAN_MOTION_DOT":"0.00002333","MEAN_MOTION_DDOT":"0.0000000000000","RA_OF_ASC_NODE":"39.5764","GP_ID":"210774904","OBJECT_TYPE":"PAYLOAD","MEAN_MOTION":"15.06399149","CENTER_NAME":"EARTH","PERIAPSIS":"546.139","FILE":"3544179","INCLINATION":"53.0562","EPOCH":"2022-08-22T19:19:10.429248","REV_AT_EPOCH":"14467","COUNTRY_CODE":"US","RCS_SIZE":"LARGE","ECCENTRICITY":"0.00015550","PERIOD":"95.592","OBJECT_NAME":"STARLINK-1112","BSTAR":"0.00017549000000","DECAY_DATE":null,"MEAN_ANOMALY":"277.7002","TIME_SYSTEM":"UTC","OBJECT_ID":"2020-001M","REF_FRAME":"TEME","EPHEMERIS_TYPE":"0","ARG_OF_PERICENTER":"82.4163","TLE_LINE1":"1 44925U 20001M   22234.80498182  .00002333  00000-0  17549-3 0  9990","SEMIMAJOR_AXIS":"6925.351","LAUNCH_DATE":"2020-01-07","SITE":"AFETR","NORAD_CAT_ID":"44925","CLASSIFICATION_TYPE":"U","TLE_LINE2":"2 44925  53.0562  39.5764 0001555  82.4163 277.7002 15.06399149144675","MEAN_ELEMENT_THEORY":"SGP4"},{"MEAN_ELEMENT_THEORY":"SGP4","TLE_LINE2":"2 44926  53.0006  39.6965 0001184 110.4354 249.6761 15.05596794145377","CLASSIFICATION_TYPE":"U","SITE":"AFETR","NORAD_CAT_ID":"44926","SEMIMAJOR_AXIS":"6927.811","LAUNCH_DATE":"2020-01-07","TLE_LINE1":"1 44926U 20001N   22234.78302116  .00003656  00000-0  26985-3 0  9992","ARG_OF_PERICENTER":"110.4354","EPHEMERIS_TYPE":"0","REF_FRAME":"TEME","OBJECT_ID":"2020-001N","TIME_SYSTEM":"UTC","MEAN_ANOMALY":"249.6761","DECAY_DATE":null,"BSTAR":"0.00026985000000","OBJECT_NAME":"STARLINK-1113","PERIOD":"95.643","ECCENTRICITY":"0.00011840","RCS_SIZE":"LARGE","COUNTRY_CODE":"US","REV_AT_EPOCH":"14537","EPOCH":"2022-08-22T18:47:33.028224","INCLINATION":"53.0006","FILE":"3544179","CENTER_NAME":"EARTH","PERIAPSIS":"548.856","MEAN_MOTION":"15.05596794","OBJECT_TYPE":"PAYLOAD","GP_ID":"210774655","MEAN_MOTION_DDOT":"0.0000000000000","RA_OF_ASC_NODE":"39.6965","MEAN_MOTION_DOT":"0.00003656","APOAPSIS":"550.497","ELEMENT_SET_NO":"999"},{"INCLINATION":"53.0556","EPOCH":"2022-08-22T19:35:06.326880","COUNTRY_CODE":"US","REV_AT_EPOCH":"14468","ECCENTRICITY":"0.00013160","RCS_SIZE":"LARGE","PERIOD":"95.592","OBJECT_NAME":"STARLINK-1114","MEAN_MOTION_DOT":"-0.00000054","APOAPSIS":"548.139","ELEMENT_SET_NO":"999","MEAN_MOTION_DDOT":"0.0000000000000","RA_OF_ASC_NODE":"39.5215","OBJECT_TYPE":"PAYLOAD","GP_ID":"210773404","MEAN_MOTION":"15.06395253","CENTER_NAME":"EARTH","PERIAPSIS":"546.317","FILE":"3544179","CLASSIFICATION_TYPE":"U","TLE_LINE2":"2 44927  53.0556  39.5215 0001316  73.7481 286.3653 15.06395253144683","MEAN_ELEMENT_THEORY":"SGP4","DECAY_DATE":null,"BSTAR":"0.00001524600000","MEAN_ANOMALY":"286.3653","TIME_SYSTEM":"UTC","REF_FRAME":"TEME","OBJECT_ID":"2020-001P","EPHEMERIS_TYPE":"0","ARG_OF_PERICENTER":"73.7481","LAUNCH_DATE":"2020-01-07","SEMIMAJOR_AXIS":"6925.363","TLE_LINE1":"1 44927U 20001P   22234.81604545 -.00000054  00000-0  15246-4 0  9997","NORAD_CAT_ID":"44927","SITE":"AFETR"},{"RA_OF_ASC_NODE":"39.5408","MEAN_MOTION_DDOT":"0.0000000000000","MEAN_MOTION_DOT":"0.00001144","APOAPSIS":"548.047","ELEMENT_SET_NO":"999","PERIAPSIS":"546.396","CENTER_NAME":"EARTH","FILE":"3544179","OBJECT_TYPE":"PAYLOAD","GP_ID":"210773654","MEAN_MOTION":"15.06397293","COUNTRY_CODE":"US","REV_AT_EPOCH":"14468","INCLINATION":"53.0568","EPOCH":"2022-08-22T19:29:47.712192","OBJECT_NAME":"STARLINK-1119","ECCENTRICITY":"0.00011920","RCS_SIZE":"LARGE","PERIOD":"95.592","REF_FRAME":"TEME","OBJECT_ID":"2020-001Q","EPHEMERIS_TYPE":"0","DECAY_DATE":null,"BSTAR":"0.00009568700000","MEAN_ANOMALY":"281.0588","TIME_SYSTEM":"UTC","NORAD_CAT_ID":"44928","SITE":"AFETR","ARG_OF_PERICENTER":"79.0535","LAUNCH_DATE":"2020-01-07","SEMIMAJOR_AXIS":"6925.357","TLE_LINE1":"1 44928U 20001Q   22234.81235778  .00001144  00000-0  95687-4 0  9993","CLASSIFICATION_TYPE":"U","TLE_LINE2":"2 44928  53.0568  39.5408 0001192  79.0535 281.0588 15.06397293144687","MEAN_ELEMENT_THEORY":"SGP4"},{"GP_ID":"210774405","OBJECT_TYPE":"PAYLOAD","MEAN_MOTION":"15.06397965","PERIAPSIS":"546.250","CENTER_NAME":"EARTH","FILE":"3544179","ELEMENT_SET_NO":"999","APOAPSIS":"548.189","MEAN_MOTION_DOT":"0.00002119","MEAN_MOTION_DDOT":"0.0000000000000","RA_OF_ASC_NODE":"39.9054","RCS_SIZE":"LARGE","ECCENTRICITY":"0.00014000","PERIOD":"95.592","OBJECT_NAME":"STARLINK-1121","INCLINATION":"53.0563","EPOCH":"2022-08-22T17:33:01.634688","REV_AT_EPOCH":"14466","COUNTRY_CODE":"US","ARG_OF_PERICENTER":"86.5696","TLE_LINE1":"1 44929U 20001R   22234.73126892  .00002119  00000-0  16113-3 0  9990","SEMIMAJOR_AXIS":"6925.355","LAUNCH_DATE":"2020-01-07","SITE":"AFETR","NORAD_CAT_ID":"44929","DECAY_DATE":null,"BSTAR":"0.00016113000000","MEAN_ANOMALY":"273.5453","TIME_SYSTEM":"UTC","OBJECT_ID":"2020-001R","REF_FRAME":"TEME","EPHEMERIS_TYPE":"0","MEAN_ELEMENT_THEORY":"SGP4","TLE_LINE2":"2 44929  53.0563  39.9054 0001400  86.5696 273.5453 15.06397965144668","CLASSIFICATION_TYPE":"U"},{"EPOCH":"2022-08-22T18:20:47.945184","INCLINATION":"53.0572","COUNTRY_CODE":"US","REV_AT_EPOCH":"14467","PERIOD":"95.592","ECCENTRICITY":"0.00012470","RCS_SIZE":"LARGE","OBJECT_NAME":"STARLINK-1123","MEAN_MOTION_DOT":"0.00001891","APOAPSIS":"548.093","ELEMENT_SET_NO":"999","RA_OF_ASC_NODE":"39.7670","MEAN_MOTION_DDOT":"0.0000000000000","MEAN_MOTION":"15.06394841","OBJECT_TYPE":"PAYLOAD","GP_ID":"210775154","FILE":"3544179","CENTER_NAME":"EARTH","PERIAPSIS":"546.366","CLASSIFICATION_TYPE":"U","TLE_LINE2":"2 44930  53.0572  39.7670 0001247  84.1724 275.9407 15.06394841144673","MEAN_ELEMENT_THEORY":"SGP4","TIME_SYSTEM":"UTC","BSTAR":"0.00014585000000","DECAY_DATE":null,"MEAN_ANOMALY":"275.9407","EPHEMERIS_TYPE":"0","REF_FRAME":"TEME","OBJECT_ID":"2020-001S","SEMIMAJOR_AXIS":"6925.364","LAUNCH_DATE":"2020-01-07","TLE_LINE1":"1 44930U 20001S   22234.76444381  .00001891  00000-0  14585-3 0  9998","ARG_OF_PERICENTER":"84.1724","SITE":"AFETR","NORAD_CAT_ID":"44930"},{"SITE":"AFETR","NORAD_CAT_ID":"44931","TLE_LINE1":"1 44931U 20001T   22234.70514656  .00000386  00000-0  40760-4 0  9999","SEMIMAJOR_AXIS":"6912.860","LAUNCH_DATE":"2020-01-07","ARG_OF_PERICENTER":"76.4833","EPHEMERIS_TYPE":"0","OBJECT_ID":"2020-001T","REF_FRAME":"TEME","TIME_SYSTEM":"UTC","DECAY_DATE":null,"BSTAR":"0.00004076000000","MEAN_ANOMALY":"283.6317","MEAN_ELEMENT_THEORY":"SGP4","CLASSIFICATION_TYPE":"U","TLE_LINE2":"2 44931  53.0558  32.6653 0001430  76.4833 283.6317 15.10484074145513","FILE":"3544179","PERIAPSIS":"533.736","CENTER_NAME":"EARTH","MEAN_MOTION":"15.10484074","GP_ID":"210773903","OBJECT_TYPE":"PAYLOAD","MEAN_MOTION_DDOT":"0.0000000000000","RA_OF_ASC_NODE":"32.6653","APOAPSIS":"535.713","ELEMENT_SET_NO":"999","MEAN_MOTION_DOT":"0.00000386","OBJECT_NAME":"STARLINK-1128","PERIOD":"95.334","RCS_SIZE":"LARGE","ECCENTRICITY":"0.00014300","REV_AT_EPOCH":"14551","COUNTRY_CODE":"US","EPOCH":"2022-08-22T16:55:24.662784","INCLINATION":"53.0558"}];
